{
  "type": "FeatureCollection",
  "features": [
    {
      "type": "Feature",
      "properties": {
        "norad_id": 43207,
        "name": "BEIDOU-3 M4 (C22)",
        "group": "beidou",
        "lat": -9.600726631979756,
        "lon": -104.29462134454693,
        "alt_km": 21541.148159462835,
        "timestamp": "2025-12-13T16:48:32.975625+00:00",
        "meta_object_name": "BEIDOU-3 M4 (C22)",
        "meta_object_id": "2018-018A",
        "meta_epoch": "2025-12-10T17:31:13.270944",
        "meta_mean_motion": 1.86230984,
        "meta_eccentricity": 0.00041357,
        "meta_inclination": 56.4844,
        "meta_ra_of_asc_node": 69.3703,
        "meta_arg_of_pericenter": 10.5342,
        "meta_mean_anomaly": 349.4961,
        "meta_ephemeris_type": 0,
        "meta_classification_type": "U",
        "meta_norad_cat_id": 43207,
        "meta_element_set_no": 999,
        "meta_rev_at_epoch": 5323,
        "meta_bstar": 0,
        "meta_mean_motion_dot": -5.7e-07,
        "meta_mean_motion_ddot": 0,
        "tle_line1": "1 43207U 18018A   25344.73001471 -.00000057  00000+0  00000+0 0  9996",
        "tle_line2": "2 43207  56.4844  69.3703 0004135  10.5342 349.4961  1.86230984 53235"
      },
      "geometry": {
        "type": "Point",
        "coordinates": [
          -104.29462134454693,
          -9.600726631979756
        ]
      }
    },
    {
      "type": "Feature",
      "properties": {
        "norad_id": 43208,
        "name": "BEIDOU-3 M3 (C21)",
        "group": "beidou",
        "lat": 27.118976237943414,
        "lon": -130.527603800604,
        "alt_km": 21542.80811978229,
        "timestamp": "2025-12-13T16:48:32.975636+00:00",
        "meta_object_name": "BEIDOU-3 M3 (C21)",
        "meta_object_id": "2018-018B",
        "meta_epoch": "2025-12-10T19:07:00.567840",
        "meta_mean_motion": 1.8623124,
        "meta_eccentricity": 0.0006564,
        "meta_inclination": 56.484,
        "meta_ra_of_asc_node": 69.3721,
        "meta_arg_of_pericenter": 317.0111,
        "meta_mean_anomaly": 42.9593,
        "meta_ephemeris_type": 0,
        "meta_classification_type": "U",
        "meta_norad_cat_id": 43208,
        "meta_element_set_no": 999,
        "meta_rev_at_epoch": 5323,
        "meta_bstar": 0,
        "meta_mean_motion_dot": -5.7e-07,
        "meta_mean_motion_ddot": 0,
        "tle_line1": "1 43208U 18018B   25344.79653435 -.00000057  00000+0  00000+0 0  9996",
        "tle_line2": "2 43208  56.4840  69.3721 0006564 317.0111  42.9593  1.86231240 53231"
      },
      "geometry": {
        "type": "Point",
        "coordinates": [
          -130.527603800604,
          27.118976237943414
        ]
      }
    },
    {
      "type": "Feature",
      "properties": {
        "norad_id": 43245,
        "name": "BEIDOU-3 M9 (C29)",
        "group": "beidou",
        "lat": 1.5742147678655258,
        "lon": -52.456462290320104,
        "alt_km": 21528.22229890247,
        "timestamp": "2025-12-13T16:48:32.975647+00:00",
        "meta_object_name": "BEIDOU-3 M9 (C29)",
        "meta_object_id": "2018-029A",
        "meta_epoch": "2025-12-09T09:38:36.109248",
        "meta_mean_motion": 1.86227964,
        "meta_eccentricity": 0.00016746,
        "meta_inclination": 54.3687,
        "meta_ra_of_asc_node": 306.5834,
        "meta_arg_of_pericenter": 274.0787,
        "meta_mean_anomaly": 85.8921,
        "meta_ephemeris_type": 0,
        "meta_classification_type": "U",
        "meta_norad_cat_id": 43245,
        "meta_element_set_no": 999,
        "meta_rev_at_epoch": 5236,
        "meta_bstar": 0,
        "meta_mean_motion_dot": -7.6e-07,
        "meta_mean_motion_ddot": 0,
        "tle_line1": "1 43245U 18029A   25343.40180682 -.00000076  00000+0  00000+0 0  9996",
        "tle_line2": "2 43245  54.3687 306.5834 0001674 274.0787  85.8921  1.86227964 52369"
      },
      "geometry": {
        "type": "Point",
        "coordinates": [
          -52.456462290320104,
          1.5742147678655258
        ]
      }
    },
    {
      "type": "Feature",
      "properties": {
        "norad_id": 43246,
        "name": "BEIDOU-3 M10 (C30)",
        "group": "beidou",
        "lat": 35.34920344671758,
        "lon": -22.991746478298168,
        "alt_km": 21516.00694718899,
        "timestamp": "2025-12-13T16:48:32.975659+00:00",
        "meta_object_name": "BEIDOU-3 M10 (C30)",
        "meta_object_id": "2018-029B",
        "meta_epoch": "2025-12-12T13:24:42.846336",
        "meta_mean_motion": 1.86228821,
        "meta_eccentricity": 0.00040298,
        "meta_inclination": 54.3631,
        "meta_ra_of_asc_node": 306.5011,
        "meta_arg_of_pericenter": 0.3808,
        "meta_mean_anomaly": 359.61,
        "meta_ephemeris_type": 0,
        "meta_classification_type": "U",
        "meta_norad_cat_id": 43246,
        "meta_element_set_no": 999,
        "meta_rev_at_epoch": 5240,
        "meta_bstar": 0,
        "meta_mean_motion_dot": -9.4e-07,
        "meta_mean_motion_ddot": 0,
        "tle_line1": "1 43246U 18029B   25346.55882924 -.00000094  00000+0  00000+0 0  9994",
        "tle_line2": "2 43246  54.3631 306.5011 0004029   0.3808 359.6100  1.86228821 52406"
      },
      "geometry": {
        "type": "Point",
        "coordinates": [
          -22.991746478298168,
          35.34920344671758
        ]
      }
    },
    {
      "type": "Feature",
      "properties": {
        "norad_id": 43539,
        "name": "BEIDOU-2 IGSO-7 (C16)",
        "group": "beidou",
        "lat": -53.44679254270498,
        "lon": 94.58901958454335,
        "alt_km": 35526.343351073,
        "timestamp": "2025-12-13T16:48:32.975671+00:00",
        "meta_object_name": "BEIDOU-2 IGSO-7 (C16)",
        "meta_object_id": "2018-057A",
        "meta_epoch": "2025-12-12T21:40:21.690912",
        "meta_mean_motion": 1.00257087,
        "meta_eccentricity": 0.00924019,
        "meta_inclination": 55.1754,
        "meta_ra_of_asc_node": 164.6693,
        "meta_arg_of_pericenter": 235.1751,
        "meta_mean_anomaly": 117.987,
        "meta_ephemeris_type": 0,
        "meta_classification_type": "U",
        "meta_norad_cat_id": 43539,
        "meta_element_set_no": 999,
        "meta_rev_at_epoch": 2725,
        "meta_bstar": 0,
        "meta_mean_motion_dot": -3.7e-07,
        "meta_mean_motion_ddot": 0,
        "tle_line1": "1 43539U 18057A   25346.90302883 -.00000037  00000+0  00000+0 0  9997",
        "tle_line2": "2 43539  55.1754 164.6693 0092401 235.1751 117.9870  1.00257087 27257"
      },
      "geometry": {
        "type": "Point",
        "coordinates": [
          94.58901958454335,
          -53.44679254270498
        ]
      }
    },
    {
      "type": "Feature",
      "properties": {
        "norad_id": 43581,
        "name": "BEIDOU-3 M5 (C23)",
        "group": "beidou",
        "lat": -51.36007777813549,
        "lon": 73.65139718497706,
        "alt_km": 21534.867263017957,
        "timestamp": "2025-12-13T16:48:32.975696+00:00",
        "meta_object_name": "BEIDOU-3 M5 (C23)",
        "meta_object_id": "2018-062A",
        "meta_epoch": "2025-12-12T05:55:01.607232",
        "meta_mean_motion": 1.86228672,
        "meta_eccentricity": 0.00021016,
        "meta_inclination": 54.0891,
        "meta_ra_of_asc_node": 188.6597,
        "meta_arg_of_pericenter": 354.1416,
        "meta_mean_anomaly": 5.9159,
        "meta_ephemeris_type": 0,
        "meta_classification_type": "U",
        "meta_norad_cat_id": 43581,
        "meta_element_set_no": 999,
        "meta_rev_at_epoch": 5015,
        "meta_bstar": 0,
        "meta_mean_motion_dot": 7.9e-07,
        "meta_mean_motion_ddot": 0,
        "tle_line1": "1 43581U 18062A   25346.24654638  .00000079  00000+0  00000+0 0  9990",
        "tle_line2": "2 43581  54.0891 188.6597 0002101 354.1416   5.9159  1.86228672 50154"
      },
      "geometry": {
        "type": "Point",
        "coordinates": [
          73.65139718497706,
          -51.36007777813549
        ]
      }
    },
    {
      "type": "Feature",
      "properties": {
        "norad_id": 43582,
        "name": "BEIDOU-3 M6 (C24)",
        "group": "beidou",
        "lat": -10.891319967303023,
        "lon": -179.41046957352552,
        "alt_km": 21519.081844517637,
        "timestamp": "2025-12-13T16:48:32.975717+00:00",
        "meta_object_name": "BEIDOU-3 M6 (C24)",
        "meta_object_id": "2018-062B",
        "meta_epoch": "2025-12-12T15:31:04.646784",
        "meta_mean_motion": 1.86229838,
        "meta_eccentricity": 0.00078852,
        "meta_inclination": 54.0888,
        "meta_ra_of_asc_node": 188.6352,
        "meta_arg_of_pericenter": 47.3846,
        "meta_mean_anomaly": 312.743,
        "meta_ephemeris_type": 0,
        "meta_classification_type": "U",
        "meta_norad_cat_id": 43582,
        "meta_element_set_no": 999,
        "meta_rev_at_epoch": 5016,
        "meta_bstar": 0,
        "meta_mean_motion_dot": 8.5e-07,
        "meta_mean_motion_ddot": 0,
        "tle_line1": "1 43582U 18062B   25346.64658156  .00000085  00000+0  00000+0 0  9991",
        "tle_line2": "2 43582  54.0888 188.6352 0007885  47.3846 312.7430  1.86229838 50169"
      },
      "geometry": {
        "type": "Point",
        "coordinates": [
          -179.41046957352552,
          -10.891319967303023
        ]
      }
    }
  ]
}